{
    "type": "FeatureCollection",
    "features": [
        {
            "id": "0",
            "type": "Feature",
            "properties": {
                "area": 3164.002278080794
            },
            "geometry": {
                "type": "Polygon",
                "coordinates": [
                    [
                        [
                            450593.149060436,
                            2516800.31335385
                        ],
                        [
                            450622.885959207,
                            2516804.18153526
                        ],
                        [
                            450652.622857978,
                            2516808.04971666
                        ],
                        [
                            450665.2882306,
                            2516809.6972307
                        ],
                        [
                            450641.51676714,
                            2516806.5670175
                        ],
                        [
                            450643.923768861,
                            2516796.86063133
                        ],
                        [
                            450646.330770582,
                            2516787.15424517
                        ],
                        [
                            450648.737772303,
                            2516777.447859
                        ],
                        [
                            450650.508023875,
                            2516768.12517081
                        ],
                        [
                            450640.801638478,
                            2516765.71816599
                        ],
                        [
                            450631.095253081,
                            2516763.31116117
                        ],
                        [
                            450621.388867684,
                            2516760.90415635
                        ],
                        [
                            450611.682482287,
                            2516758.49715153
                        ],
                        [
                            450601.97609689,
                            2516756.0901467
                        ],
                        [
                            450592.269711493,
                            2516753.68314188
                        ],
                        [
                            450582.563326095,
                            2516751.27613706
                        ],
                        [
                            450578.570843267,
                            2516758.35191077
                        ],
                        [
                            450576.163382451,
                            2516768.05818308
                        ],
                        [
                            450573.755921634,
                            2516777.76445539
                        ],
                        [
                            450571.348460817,
                            2516787.47072769
                        ],
                        [
                            450568.9440359784,
                            2516797.164759704
                        ],
                        [
                            450593.149060436,
                            2516800.31335385
                        ]
                    ]
                ]
            },
            "bbox": [
                450568.9440359784,
                2516751.27613706,
                450665.2882306,
                2516809.6972307
            ]
        },
        {
            "id": "1",
            "type": "Feature",
            "properties": {
                "area": 16509.641866822545
            },
            "geometry": {
                "type": "Polygon",
                "coordinates": [
                    [
                        [
                            450858.362372362,
                            2516447.10617105
                        ],
                        [
                            450834.365404863,
                            2516429.0786891
                        ],
                        [
                            450810.368437364,
                            2516411.05120714
                        ],
                        [
                            450786.371469865,
                            2516393.02372519
                        ],
                        [
                            450762.374502366,
                            2516374.99624324
                        ],
                        [
                            450738.377534867,
                            2516356.96876129
                        ],
                        [
                            450714.380567368,
                            2516338.94127934
                        ],
                        [
                            450690.383599869,
                            2516320.91379738
                        ],
                        [
                            450666.386632369,
                            2516302.88631543
                        ],
                        [
                            450642.389664871,
                            2516284.85883348
                        ],
                        [
                            450612.611078295,
                            2516282.54032526
                        ],
                        [
                            450604.640091012,
                            2516282.05328832
                        ],
                        [
                            450643.46,
                            2516286.07
                        ],
                        [
                            450636.975531019,
                            2516293.80429432
                        ],
                        [
                            450630.178952441,
                            2516301.25303478
                        ],
                        [
                            450623.050244729,
                            2516308.39790518
                        ],
                        [
                            450615.921537017,
                            2516315.54277558
                        ],
                        [
                            450615.713198938,
                            2516322.67980973
                        ],
                        [
                            450622.858069258,
                            2516329.80851753
                        ],
                        [
                            450630.002939578,
                            2516336.93722532
                        ],
                        [
                            450637.147809898,
                            2516344.06593311
                        ],
                        [
                            450644.292680218,
                            2516351.1946409
                        ],
                        [
                            450651.437550538,
                            2516358.32334869
                        ],
                        [
                            450658.582420858,
                            2516365.45205648
                        ],
                        [
                            450665.727291178,
                            2516372.58076427
                        ],
                        [
                            450672.872161499,
                            2516379.70947207
                        ],
                        [
                            450671.54016071,
                            2516389.19273714
                        ],
                        [
                            450669.095331226,
                            2516398.98510435
                        ],
                        [
                            450666.650501743,
                            2516408.77747155
                        ],
                        [
                            450664.20567226,
                            2516418.56983875
                        ],
                        [
                            450673.032691392,
                            2516421.58211416
                        ],
                        [
                            450682.828926261,
                            2516424.01139987
                        ],
                        [
                            450692.62516113,
                            2516426.44068558
                        ],
                        [
                            450702.421396,
                            2516428.86997129
                        ],
                        [
                            450712.217630869,
                            2516431.299257
                        ],
                        [
                            450722.013865738,
                            2516433.72854271
                        ],
                        [
                            450731.810100607,
                            2516436.15782842
                        ],
                        [
                            450740.593521459,
                            2516441.02826251
                        ],
                        [
                            450749.232228525,
                            2516446.24749491
                        ],
                        [
                            450757.870935592,
                            2516451.46672731
                        ],
                        [
                            450766.509642659,
                            2516456.68595972
                        ],
                        [
                            450775.148349726,
                            2516461.90519212
                        ],
                        [
                            450783.787056793,
                            2516467.12442452
                        ],
                        [
                            450792.42576386,
                            2516472.34365693
                        ],
                        [
                            450801.064470927,
                            2516477.56288933
                        ],
                        [
                            450809.703177994,
                            2516482.78212173
                        ],
                        [
                            450816.742588914,
                            2516481.68962265
                        ],
                        [
                            450821.853566722,
                            2516472.98643056
                        ],
                        [
                            450826.964544529,
                            2516464.28323848
                        ],
                        [
                            450832.138850513,
                            2516455.61961143
                        ],
                        [
                            450837.719425257,
                            2516447.20980572
                        ],
                        [
                            450843.3,
                            2516438.8
                        ],
                        [
                            450875.67302791,
                            2516460.11062798
                        ],
                        [
                            450858.362372362,
                            2516447.10617105
                        ]
                    ]
                ]
            },
            "bbox": [
                450604.640091012,
                2516282.05328832,
                450875.67302791,
                2516482.78212173
            ]
        }
    ],
    "bbox": [
        450568.9440359784,
        2516282.05328832,
        450875.67302791,
        2516809.6972307
    ]
}