{
    "type": "FeatureCollection",
    "features": [
        {
            "id": "0",
            "type": "Feature",
            "properties": {
                "area": 236.99655619166884
            },
            "geometry": {
                "type": "Polygon",
                "coordinates": [
                    [
                        [
                            534980.5618179,
                            2596590.8286705
                        ],
                        [
                            534980.29925152,
                            2596606.8372324
                        ],
                        [
                            534994.98989949,
                            2596607.45109889
                        ],
                        [
                            534995.073761154,
                            2596591.0066535
                        ],
                        [
                            534980.5618179,
                            2596590.8286705
                        ]
                    ]
                ]
            },
            "bbox": [
                534980.29925152,
                2596590.8286705,
                534995.073761154,
                2596607.45109889
            ]
        },
        {
            "id": "1",
            "type": "Feature",
            "properties": {
                "area": 236.9965565144196
            },
            "geometry": {
                "type": "Polygon",
                "coordinates": [
                    [
                        [
                            535097.78325127,
                            2596607.1873664
                        ],
                        [
                            535112.473899238,
                            2596607.80123283
                        ],
                        [
                            535112.557760901,
                            2596591.35678744
                        ],
                        [
                            535098.045817649,
                            2596591.17880445
                        ],
                        [
                            535097.78325127,
                            2596607.1873664
                        ]
                    ]
                ]
            },
            "bbox": [
                535097.78325127,
                2596591.17880445,
                535112.557760901,
                2596607.80123283
            ]
        },
        {
            "id": "2",
            "type": "Feature",
            "properties": {
                "area": 236.99655631196077
            },
            "geometry": {
                "type": "Polygon",
                "coordinates": [
                    [
                        [
                            535197.79810865,
                            2596607.8872649
                        ],
                        [
                            535212.48875662,
                            2596608.50113136
                        ],
                        [
                            535212.572618284,
                            2596592.05668597
                        ],
                        [
                            535198.060675032,
                            2596591.87870298
                        ],
                        [
                            535197.79810865,
                            2596607.8872649
                        ]
                    ]
                ]
            },
            "bbox": [
                535197.79810865,
                2596591.87870298,
                535212.572618284,
                2596608.50113136
            ]
        },
        {
            "id": "3",
            "type": "Feature",
            "properties": {
                "area": 236.99655605116186
            },
            "geometry": {
                "type": "Polygon",
                "coordinates": [
                    [
                        [
                            535299.5316881,
                            2596608.4060629
                        ],
                        [
                            535314.222336073,
                            2596609.0199294
                        ],
                        [
                            535314.306197736,
                            2596592.57548401
                        ],
                        [
                            535299.794254484,
                            2596592.39750102
                        ],
                        [
                            535299.5316881,
                            2596608.4060629
                        ]
                    ]
                ]
            },
            "bbox": [
                535299.5316881,
                2596592.39750102,
                535314.306197736,
                2596609.0199294
            ]
        }
    ],
    "bbox": [
        534980.29925152,
        2596590.8286705,
        535314.306197736,
        2596609.0199294
    ]
}